[{"OBJECT_NAME":"EOSSAT-1","OBJECT_ID":"2023-001AW","EPOCH":"2026-03-09T17:40:07.010400","MEAN_MOTION":15.32339828,"ECCENTRICITY":0.00112629,"INCLINATION":97.3357,"RA_OF_ASC_NODE":130.2294,"ARG_OF_PERICENTER":110.3168,"MEAN_ANOMALY":249.9285,"EPHEMERIS_TYPE":0,"CLASSIFICATION_TYPE":"U","NORAD_CAT_ID":55053,"ELEMENT_SET_NO":999,"REV_AT_EPOCH":17668,"BSTAR":0.00024844399,"MEAN_MOTION_DOT":7.695e-5,"MEAN_MOTION_DDOT":0},{"OBJECT_NAME":"STARLINK-34400","OBJECT_ID":"2025-130AB","EPOCH":"2026-03-09T08:09:38.329344","MEAN_MOTION":15.30180001,"ECCENTRICITY":0.00017595,"INCLINATION":53.1599,"RA_OF_ASC_NODE":92.7018,"ARG_OF_PERICENTER":96.8048,"MEAN_ANOMALY":263.3153,"EPHEMERIS_TYPE":0,"CLASSIFICATION_TYPE":"U","NORAD_CAT_ID":64463,"ELEMENT_SET_NO":999,"REV_AT_EPOCH":4061,"BSTAR":0.00048788452,"MEAN_MOTION_DOT":0.00014109,"MEAN_MOTION_DDOT":0}]
