EOSSAT-1                
1 55053U 23001AW  26068.73619225  .00007695  00000+0  24844-3 0  9992
2 55053  97.3357 130.2294 0011263 110.3168 249.9285 15.32339828176689
STARLINK-34400          
1 64463U 25130AB  26068.34002696  .00014109  00000+0  48788-3 0  9998
2 64463  53.1599  92.7018 0001759  96.8048 263.3153 15.30180001 40614
